ONEWEB-0661             
1 55821U 23029AB  24088.96383944 -.00000117  00000+0 -35060-3 0  9992
2 55821  87.8897  90.9818 0001834  72.5058 287.6272 13.14502959 52941
ONEWEB-0664             
1 55824U 23029AE  24088.97257902 -.00000197  00000+0 -51608-3 0  9994
2 55824  87.9145  75.7069 0002268  74.5004 285.6379 13.20771066 54194
ONEWEB-0665             
1 55825U 23029AF  24089.03679949 -.00000127  00000+0 -37587-3 0  9995
2 55825  87.8895  90.9424 0001733  78.0216 282.1108 13.14503557 53664
ONEWEB-0666             
1 55826U 23029AG  24088.96627876 -.00000016  00000+0 -72063-4 0  9995
2 55826  87.9146  75.6993 0002339  93.1209 267.0192 13.20772923 54207
ONEWEB-0667             
1 55827U 23029AH  24088.95996641 -.00000039  00000+0 -12732-3 0  9995
2 55827  87.9144  75.6343 0001901  75.3905 284.7439 13.20769608 54198
ONEWEB-0669             
1 55828U 23029AJ  24088.95523424  .00000015  00000+0  44257-5 0  9992
2 55828  87.9145  75.6734 0002731  83.6559 276.4885 13.20769740 54193
